NORAD_CAT_ID,OBJECT_NAME,OBJECT_TYPE,EPOCH,MEAN_MOTION,ECCENTRICITY,INCLINATION,RA_OF_ASC_NODE,ARG_OF_PERICENTER,MEAN_ANOMALY,BSTAR,MEAN_MOTION_DOT,MEAN_MOTION_DDOT,TLE_LINE0,TLE_LINE1,TLE_LINE2,SEMIMAJOR_AXIS,PERIOD,APOGEE,PERIGEE,DECAYED
53928.0,STARLINK-5009,PAYLOAD,2023-11-22 16:00:20,15.08850038,0.0001357,53.2168,106.0526,82.564,277.5506,0.000206,2.993e-05,0.0,0 STARLINK-5009,1 53928U 22119AU  23326.66689902  .00002993  00000-0  20600-3 0  9998,2 53928  53.2168 106.0526 0001357  82.5640 277.5506 15.08850038 65039,6917.85,95.437,540.653,538.776,0.0
53928.0,STARLINK-5009,PAYLOAD,2023-11-23 14:15:44,15.0883375,0.0001422,53.2164,101.8891,85.46,274.6554,5.678e-06,-1.98e-06,0.0,0 STARLINK-5009,1 53928U 22119AU  23327.59427007 -.00000198  00000-0  56780-5 0  9993,2 53928  53.2164 101.8891 0001422  85.4600 274.6554 15.08833750 65598,6917.899,95.438,540.748,538.781,0.0
53928.0,STARLINK-5009,PAYLOAD,2023-11-23 15:51:08,15.08832333,0.0001522,53.2177,101.5921,104.1622,255.954,-7.4687e-06,-4.07e-06,0.0,0 STARLINK-5009,1 53928U 22119AU  23327.66051031 -.00000407  00000-0 -74687-5 0  9991,2 53928  53.2177 101.5921 0001522 104.1622 255.9540 15.08832333 65185,6917.904,95.438,540.822,538.716,0.0
53928.0,STARLINK-5009,PAYLOAD,2023-11-24 14:06:31,15.08841092,0.0001413,53.2177,97.4275,96.2607,263.8546,8.4917e-05,1.064e-05,0.0,0 STARLINK-5009,1 53928U 22119AU  23328.58787024  .00001064  00000-0  84917-4 0  9995,2 53928  53.2177  97.4275 0001413  96.2607 263.8546 15.08841092 65741,6917.877,95.437,540.72,538.765,0.0
53928.0,STARLINK-5009,PAYLOAD,2023-11-24 17:17:18,15.08844848,0.0001484,53.2176,96.8306,105.2483,254.8673,0.00014496,2.02e-05,0.0,0 STARLINK-5009,1 53928U 22119AU  23328.72034814  .00002020  00000-0  14496-3 0  9990,2 53928  53.2176  96.8306 0001484 105.2483 254.8673 15.08844848 65348,6917.866,95.437,540.757,538.704,0.0
53928.0,STARLINK-5009,PAYLOAD,2023-11-25 13:57:19,15.08837381,0.0001563,53.2183,92.9645,94.0286,266.0885,0.00059582,9.207e-05,0.0,0 STARLINK-5009,1 53928U 22119AU  23329.58147553  .00009207  00000-0  59582-3 0  9999,2 53928  53.2183  92.9645 0001563  94.0286 266.0885 15.08837381 65897,6917.888,95.438,540.835,538.672,0.0
53928.0,STARLINK-5009,PAYLOAD,2023-11-25 15:32:42,15.08851251,0.0001621,53.2184,92.6661,102.5833,257.534,0.00037552,5.695e-05,0.0,0 STARLINK-5009,1 53928U 22119AU  23329.64770835  .00005695  00000-0  37552-3 0  9991,2 53928  53.2184  92.6661 0001621 102.5833 257.5340 15.08851251 65906,6917.846,95.437,540.832,538.59,0.0
53928.0,STARLINK-5009,PAYLOAD,2023-11-26 12:12:41,15.08856882,0.000158,53.2185,88.8016,94.7298,265.3874,0.0002141,3.123e-05,0.0,0 STARLINK-5009,1 53928U 22119AU  23330.50881905  .00003123  00000-0  21410-3 0  9999,2 53928  53.2185  88.8016 0001580  94.7298 265.3874 15.08856882 65611,6917.829,95.436,540.787,538.601,0.0
53928.0,STARLINK-5009,PAYLOAD,2023-11-26 13:48:05,15.08857469,0.000157,53.2185,88.5047,91.2862,268.831,0.00020991,3.056e-05,0.0,0 STARLINK-5009,1 53928U 22119AU  23330.57505816  .00003056  00000-0  20991-3 0  9998,2 53928  53.2185  88.5047 0001570  91.2862 268.8310 15.08857469 66043,6917.827,95.436,540.778,538.606,0.0
53928.0,STARLINK-5009,PAYLOAD,2023-11-26 15:23:28,15.08859261,0.0001514,53.2187,88.2109,86.7388,273.3778,0.00023613,3.474e-05,0.0,0 STARLINK-5009,1 53928U 22119AU  23330.64129754  .00003474  00000-0  23613-3 0  9997,2 53928  53.2187  88.2109 0001514  86.7388 273.3778 15.08859261 66053,6917.822,95.436,540.734,538.639,0.0
53928.0,STARLINK-5009,PAYLOAD,2023-11-27 12:03:30,15.08828051,0.000156,53.2189,84.3461,84.0458,276.0712,-0.00028775,-4.863e-05,0.0,0 STARLINK-5009,1 53928U 22119AU  23331.50243159 -.00004863  00000-0 -28775-3 0  9998,2 53928  53.2189  84.3461 0001560  84.0458 276.0712 15.08828051 65761,6917.917,95.438,540.861,538.703,0.0
53928.0,STARLINK-5009,PAYLOAD,2023-11-27 13:38:53,15.08827967,0.0001532,53.2188,84.0485,83.9401,276.1765,-0.00026698,-4.533e-05,0.0,0 STARLINK-5009,1 53928U 22119AU  23331.56867213 -.00004533  00000-0 -26698-3 0  9993,2 53928  53.2188  84.0485 0001532  83.9401 276.1765 15.08827967 66190,6917.917,95.438,540.842,538.722,0.0
53928.0,STARLINK-5009,PAYLOAD,2023-11-27 15:14:16,15.08826542,0.0001542,53.2188,83.7516,80.6713,279.4453,-0.000272,-4.613e-05,0.0,0 STARLINK-5009,1 53928U 22119AU  23331.63491341 -.00004613  00000-0 -27200-3 0  9995,2 53928  53.2188  83.7516 0001542  80.6713 279.4453 15.08826542 66202,6917.922,95.438,540.853,538.72,0.0
53928.0,STARLINK-5009,PAYLOAD,2023-11-28 11:54:16,15.08842328,0.0001341,53.2183,79.8893,81.0899,279.0245,3.7072e-05,3.02e-06,0.0,0 STARLINK-5009,1 53928U 22119AU  23332.49602782  .00000302  00000-0  37072-4 0  9991,2 53928  53.2183  79.8893 0001341  81.0899 279.0245 15.08842328 65910,6917.873,95.437,540.666,538.811,0.0
53928.0,STARLINK-5009,PAYLOAD,2023-11-28 13:29:40,15.08844025,0.0002046,53.219,79.5925,57.257,302.8619,9.3555e-05,1.201e-05,0.0,0 STARLINK-5009,1 53928U 22119AU  23332.56227005  .00001201  00000-0  93555-4 0  9997,2 53928  53.2190  79.5925 0002046  57.2570 302.8619 15.08844025 66349,6917.868,95.437,541.148,538.318,0.0
53928.0,STARLINK-5009,PAYLOAD,2023-11-28 15:05:02,15.0885685,0.0001629,53.2187,79.2945,68.3363,291.7802,0.00028883,4.314e-05,0.0,0 STARLINK-5009,1 53928U 22119AU  23332.62850353  .00004314  00000-0  28883-3 0  9991,2 53928  53.2187  79.2945 0001629  68.3363 291.7802 15.08856850 65936,6917.829,95.436,540.821,538.567,0.0
53928.0,STARLINK-5009,PAYLOAD,2023-11-29 11:45:04,15.08840647,0.0001519,53.2193,75.4264,82.8494,277.2671,0.00026658,3.957e-05,0.0,0 STARLINK-5009,1 53928U 22119AU  23333.48963634  .00003957  00000-0  26658-3 0  9993,2 53928  53.2193  75.4264 0001519  82.8494 277.2671 15.08840647 66064,6917.878,95.438,540.794,538.693,0.0
53928.0,STARLINK-5009,PAYLOAD,2023-11-29 13:20:27,15.08842883,0.000162,53.219,75.1287,82.7041,277.4135,0.00029139,4.353e-05,0.0,0 STARLINK-5009,1 53928U 22119AU  23333.55587569  .00004353  00000-0  29139-3 0  9998,2 53928  53.2190  75.1287 0001620  82.7041 277.4135 15.08842883 66491,6917.872,95.437,540.857,538.616,0.0
53928.0,STARLINK-5009,PAYLOAD,2023-11-30 13:11:14,15.08847734,0.0001668,53.2201,70.6675,74.6948,285.4229,-5.3883e-05,-1.146e-05,0.0,0 STARLINK-5009,1 53928U 22119AU  23334.54947653 -.00001146  00000-0 -53883-4 0  9995,2 53928  53.2201  70.6675 0001668  74.6948 285.4229 15.08847734 66227,6917.857,95.437,540.876,538.568,0.0
53928.0,STARLINK-5009,PAYLOAD,2023-12-01 11:26:38,15.08843249,0.0001588,53.2195,66.5037,89.9958,270.1216,6.5607e-05,7.56e-06,0.0,0 STARLINK-5009,1 53928U 22119AU  23335.47683681  .00000756  00000-0  65607-4 0  9997,2 53928  53.2195  66.5037 0001588  89.9958 270.1216 15.08843249 66781,6917.87,95.437,540.834,538.637,0.0
53928.0,STARLINK-5009,PAYLOAD,2023-12-02 11:17:25,15.08822619,0.0001445,53.219,62.0432,118.9144,241.1993,-0.00025301,-4.31e-05,0.0,0 STARLINK-5009,1 53928U 22119AU  23336.47043817 -.00004310  00000-0 -25301-3 0  9997,2 53928  53.2190  62.0432 0001445 118.9144 241.1993 15.08822619 66517,6917.934,95.439,540.798,538.799,0.0
53928.0,STARLINK-5009,PAYLOAD,2023-12-03 11:08:15,15.0881929,0.000109,53.2179,57.5838,67.4901,292.6206,-0.00018091,-3.164e-05,0.0,0 STARLINK-5009,1 53928U 22119AU  23337.46406739 -.00003164  00000-0 -18091-3 0  9997,2 53928  53.2179  57.5838 0001090  67.4901 292.6206 15.08819290 66663,6917.944,95.439,540.563,539.055,0.0
53928.0,STARLINK-5009,PAYLOAD,2023-12-03 12:43:38,15.08827014,0.0003145,53.2181,57.2855,149.1008,211.017,-0.00026008,-4.424e-05,0.0,0 STARLINK-5009,1 53928U 22119AU  23337.53030159 -.00004424  00000-0 -26008-3 0  9991,2 53928  53.2181  57.2855 0003145 149.1008 211.0170 15.08827014 67097,6917.92,95.438,541.961,537.609,0.0
53928.0,STARLINK-5009,PAYLOAD,2023-12-04 10:59:01,15.08822175,0.00012,53.219,53.1224,78.6541,281.4586,0.00033267,5.008e-05,0.0,0 STARLINK-5009,1 53928U 22119AU  23338.45765811  .00005008  00000-0  33267-3 0  9995,2 53928  53.2190  53.1224 0001200  78.6541 281.4586 15.08822175 66814,6917.935,95.439,540.63,538.97,0.0
53928.0,STARLINK-5009,PAYLOAD,2023-12-04 14:09:47,15.08836291,9.92e-05,53.218,52.528,85.4657,274.6448,0.00045962,7.034e-05,0.0,0 STARLINK-5009,1 53928U 22119AU  23338.59012804  .00007034  00000-0  45962-3 0  9993,2 53928  53.2180  52.5280 0000992  85.4657 274.6448 15.08836291 67253,6917.892,95.438,540.443,539.07,0.0
53928.0,STARLINK-5009,PAYLOAD,2023-12-05 14:00:33,15.08854962,0.0001001,53.218,48.0664,97.4168,262.6938,0.00039049,5.935e-05,0.0,0 STARLINK-5009,1 53928U 22119AU  23339.58371932  .00005935  00000-0  39049-3 0  9990,2 53928  53.2180  48.0664 0001001  97.4168 262.6938 15.08854962 67404,6917.835,95.437,540.392,539.007,0.0
53928.0,STARLINK-5009,PAYLOAD,2023-12-06 04:19:03,15.08845876,0.0001378,53.2182,45.3945,64.0437,296.0697,-9.6343e-05,-1.821e-05,0.0,0 STARLINK-5009,1 53928U 22119AU  23340.17989840 -.00001821  00000-0 -96343-4 0  9993,2 53928  53.2182  45.3945 0001378  64.0437 296.0697 15.08845876 67074,6917.862,95.437,540.681,538.774,0.0
53928.0,STARLINK-5009,PAYLOAD,2023-12-06 10:40:36,15.08834575,4.76e-05,53.2189,44.1974,127.9334,232.1701,-0.00020517,-3.551e-05,0.0,0 STARLINK-5009,1 53928U 22119AU  23340.44486565 -.00003551  00000-0 -20517-3 0  9990,2 53928  53.2189  44.1974 0000476 127.9334 232.1701 15.08834575 67119,6917.897,95.438,540.091,539.433,0.0
53928.0,STARLINK-5009,PAYLOAD,2023-12-06 12:15:59,15.08833616,9.48e-05,53.2206,43.8996,148.6631,211.4417,-0.00019947,-3.46e-05,0.0,0 STARLINK-5009,1 53928U 22119AU  23340.51110490 -.00003460  00000-0 -19947-3 0  9993,2 53928  53.2206  43.8996 0000948 148.6631 211.4417 15.08833616 67549,6917.9,95.438,540.421,539.109,0.0
53928.0,STARLINK-5009,PAYLOAD,2023-12-07 04:09:50,15.08840481,9.38e-05,53.2202,40.9361,78.0945,282.0152,-7.9078e-05,-1.546e-05,0.0,0 STARLINK-5009,1 53928U 22119AU  23341.17349979 -.00001546  00000-0 -79078-4 0  9997,2 53928  53.2202  40.9361 0000938  78.0945 282.0152 15.08840481 67225,6917.879,95.438,540.393,539.095,0.0
